ABS-2                   
1 39508U 14006A   22308.80884594 -.00000092  00000+0  00000+0 0  9997
2 39508   0.0542  73.2375 0003191 156.4379 180.4950  1.00271551 32042
ATHENA-FIDUS            
1 39509U 14006B   22308.41577104  .00000147  00000+0  00000+0 0  9991
2 39509   0.0136 269.5651 0001653 318.4549   3.1080  1.00272344 31831
TURKSAT 4A              
1 39522U 14007A   22308.75743851  .00000140  00000+0  00000+0 0  9991
2 39522   0.0182 249.4716 0004690 347.9583 121.2292  1.00271709 31746
EXPRESS-AT1             
1 39612U 14010A   22308.85177192  .00000072  00000+0  00000+0 0  9999
2 39612   0.0009 295.7142 0000242 320.6514 150.3664  1.00272174 31813
EXPRESS-AT2             
1 39613U 14010B   22308.86842721 -.00000287  00000+0  00000+0 0  9997
2 39613   0.0025 304.1808 0000626 276.4081 276.0025  1.00270885 31644
AMAZONAS 4A             
1 39616U 14011A   22308.75402024 -.00000258  00000+0  00000+0 0  9995
2 39616   0.0378 272.8905 0002802 351.4039 337.1725  1.00271272 31469
ASTRA 5B                
1 39617U 14011B   22308.72132740  .00000149  00000+0  00000+0 0  9996
2 39617   0.0695 303.3729 0004302 269.4547 122.3056  1.00271245 31422
IRNSS-1B                
1 39635U 14017A   22306.97063368  .00000074  00000+0  00000+0 0  9993
2 39635  29.3140 262.7914 0019484 192.1612 351.7719  1.00275810 31535
LUCH 5V                 
1 39727U 14023A   22308.86002909 -.00000274  00000+0  00000+0 0  9999
2 39727   1.8330  76.7434 0002892 165.7617 205.9215  1.00274737 31122
KAZSAT-3                
1 39728U 14023B   22307.86021804  .00000053  00000+0  00000+0 0  9998
2 39728   0.0477  85.6559 0000471 225.5160 100.1397  1.00270699 29196
EUTELSAT 3B             
1 39773U 14030A   22307.62163868  .00000012  00000+0  00000+0 0  9992
2 39773   0.0661   3.8541 0005887 205.3119  60.6002  1.00272044 30810
ASIASAT 8 (AMOS-7)      
1 40107U 14046A   22308.76797231 -.00000039  00000+0  00000+0 0  9995
2 40107   0.0153 266.5814 0002139 318.5173  91.4532  1.00269791 88902
ASIASAT 6               
1 40141U 14052A   22308.86450319 -.00000368  00000+0  00000+0 0  9999
2 40141   0.0302 154.1238 0000695  39.6685 281.4105  1.00267969 29921
OPTUS 10                
1 40146U 14054A   22308.84571646 -.00000152  00000+0  00000+0 0  9992
2 40146   0.0194 263.0591 0004116 307.9839 293.4983  1.00273444 29798
MEASAT-3B               
1 40147U 14054B   22308.85815347 -.00000248  00000+0  00000+0 0  9999
2 40147   0.0696  66.0372 0000116  39.5886 338.9338  1.00271481 29664
LUCH (OLYMP)            
1 40258U 14058A   22308.83703507 -.00000147  00000+0  00000+0 0  9996
2 40258   0.0074 251.4377 0001096 359.2180  76.6571  1.00270459 27745
HIMAWARI-8              
1 40267U 14060A   22308.65150140 -.00000282  00000+0  00000+0 0  9998
2 40267   0.0428 113.8165 0001618 140.4130 164.8230  1.00267469 29515
IRNSS-1C                
1 40269U 14061A   22308.71364644 -.00000163  00000+0  00000+0 0  9992
2 40269   3.2597 123.0692 0018236  10.8140 250.0065  1.00270043 29440
INTELSAT 30 (IS-30)     
1 40271U 14062A   22308.46185031 -.00000157  00000+0  00000+0 0  9992
2 40271   0.0214 267.6687 0002092 197.7924   9.4501  1.00272586 29345
ARSAT 1                 
1 40272U 14062B   22308.75454345 -.00000265  00000+0  00000+0 0  9992
2 40272   0.0118  62.1652 0001995 168.8963  12.7396  1.00269878 29374
EXPRESS-AM6             
1 40277U 14064A   22308.29563065  .00000091  00000+0  00000+0 0  9994
2 40277   0.0108 275.7662 0000421 298.7646 348.4451  1.00273546 29429
GSAT-16                 
1 40332U 14078A   22308.78035392  .00000079  00000+0  00000+0 0  9998
2 40332   0.0564 268.0860 0004212 228.4129 243.5050  1.00272526 28864
DIRECTV 14              
1 40333U 14078B   22308.60557454 -.00000131  00000+0  00000+0 0  9998
2 40333   0.0292  76.9110 0000228 124.4275 321.2796  1.00271405 28829
YAMAL 401               
1 40345U 14082A   22308.51295321 -.00000236  00000+0  00000+0 0  9994
2 40345   0.0194 270.3586 0000197   3.0048  45.0126  1.00275305 28679
ASTRA 2G                
1 40364U 14089A   22308.72132740  .00000144  00000+0  00000+0 0  9997
2 40364   0.0499  60.4586 0001120  31.3182 240.0516  1.00272675 28729
FENGYUN 2G              
1 40367U 14090A   22308.86031757 -.00000304  00000+0  00000+0 0  9992
2 40367   2.2833  87.9491 0001049 207.7152 157.2716  1.00281887 28808
MUOS-3                  
1 40374U 15002A   22308.76587950 -.00000133  00000+0  00000+0 0  9994
2 40374   2.6168  17.9433 0059184 181.3391 105.0163  1.00271624 28349
INMARSAT 5-F2           
1 40384U 15005A   22307.75357293 -.00000293  00000+0  00000+0 0  9998
2 40384   0.0169 255.7970 0000283 233.2020 130.2702  1.00268455 28429
ABS-3A                  
1 40424U 15010A   22307.18729872 -.00000034  00000+0  00000+0 0  9995
2 40424   0.0112 280.9098 0002222 196.3066 349.6619  1.00271277 28134
EUTELSAT 115 WEST B     
1 40425U 15010B   22307.95680360 -.00000032  00000+0  00000+0 0  9997
2 40425   0.0124 107.3173 0000379 200.3753 325.0716  1.00273072 28157
EXPRESS-AM7             
1 40505U 15012A   22308.75743851  .00000145  00000+0  00000+0 0  9996
2 40505   0.0164 273.0199 0002701 323.1059 120.5518  1.00269072 27762
IRNSS-1D                
1 40547U 15018A   22308.78229972 -.00000314  00000+0  00000+0 0  9993
2 40547  28.6905 262.7905 0018575 188.1022 346.4863  1.00268579 27754
BEIDOU 17               
1 40549U 15019A   22307.81901552 -.00000164  00000+0  00000+0 0  9993
2 40549  51.6445 311.1330 0038419 199.9412 282.0829  1.00266996 27831
THOR 7                  
1 40613U 15022A   22308.76875712 -.00000014  00000+0  00000+0 0  9996
2 40613   0.0456  88.5177 0002872 135.2907  96.2890  1.00271584 27576
TURKMENALEM52E/MONACOSAT
1 40617U 15023A   22308.29563066  .00000097  00000+0  00000+0 0  9995
2 40617   0.0172 262.2137 0003034 320.8595 338.9000  1.00268018 27597
DIRECTV 15              
1 40663U 15026A   22308.60487694 -.00000109  00000+0  00000+0 0  9991
2 40663   0.0258 117.7834 0000423  43.5989 357.3476  1.00273663 27220
SKY MEXICO-1            
1 40664U 15026B   22308.82491420 -.00000240  00000+0  00000+0 0  9994
2 40664   0.0139 298.1743 0002088 281.2394  42.8611  1.00270777 27211
METEOSAT-11 (MSG-4)     
1 40732U 15034A   22305.68425112 -.00000004  00000+0  00000+0 0  9993
2 40732   0.5921  75.3898 0000293 128.4063  83.9798  1.00281756 26757
STAR ONE C4             
1 40733U 15034B   22308.75489226 -.00000271  00000+0  00000+0 0  9997
2 40733   0.0374  30.5044 0002229 229.0812 346.1750  1.00271958 26780
WGS F7 (USA 263)        
1 40746U 15036A   22308.15806211  .00000011  00000+0  00000+0 0  9995
2 40746   0.0164 280.7614 0000170 268.1775  86.4000  1.00272772 26628
INTELSAT 34 (IS-34)     
1 40874U 15039A   22307.75348573 -.00000293  00000+0  00000+0 0  9990
2 40874   0.0146 252.0583 0000274 253.6268 113.0508  1.00266856 26376
EUTELSAT 8 WEST B       
1 40875U 15039B   22308.76727472 -.00000071  00000+0  00000+0 0  9996
2 40875   0.0692 352.2719 0001609 220.7412  99.2316  1.00271131 26404
GSAT-6                  
1 40880U 15041A   22308.85335705 -.00000166  00000+0  00000+0 0  9994
2 40880   0.1000  92.2485 0003885 125.2416 216.3603  1.00269801 26352
INMARSAT 5-F3           
1 40882U 15042A   22308.15902132  .00000043  00000+0  00000+0 0  9997
2 40882   0.0156 252.9509 0000139 221.2624 166.0196  1.00270085 26303
MUOS-4                  
1 40887U 15044A   22308.85185049 -.00000099  00000+0  00000+0 0  9993
2 40887   2.5831  13.1847 0049597 356.8693  55.7340  1.00271321 26320
TJS-1                   
1 40892U 15046A   22308.84571666 -.00000162  00000+0  00000+0 0  9995
2 40892   0.0513  73.2612 0006397 267.0820 163.1765  1.00272246 26321
EXPRESS-AM8             
1 40895U 15048A   22308.83781986 -.00000117  00000+0  00000+0 0  9997
2 40895   0.0023 279.2503 0000871 351.4764  60.9620  1.00271888 26137
BEIDOU 20               
1 40938U 15053A   22308.86162837 -.00000158  00000+0  00000+0 0  9997
2 40938  51.2866 274.2555 0045354 200.1627 334.9737  1.00260743 26112
SKY MUSTER 1 (NBN1A)    
1 40940U 15054A   22307.93596271 -.00000286  00000+0  00000+0 0  9993
2 40940   0.0157 263.4330 0001734 314.3165 302.6382  1.00271818 26012
ARSAT 2                 
1 40941U 15054B   22307.38030076 -.00000232  00000+0  00000+0 0  9990
2 40941   0.0086  72.2061 0001807 144.1371 242.1747  1.00267755 26074
MORELOS 3               
1 40946U 15056A   22308.67455007 -.00000055  00000+0  00000+0 0  9998
2 40946   3.5440 337.2429 0001227 182.2410  14.1624  1.00271096 26047
APSTAR 9                
1 40982U 15059A   22308.84078297 -.00000272  00000+0  00000+0 0  9993
2 40982   0.0463 138.4961 0002858  75.4847 274.7516  1.00268202 25918
TURKSAT 4B              
1 40984U 15060A   22308.75604958  .00000109  00000+0  00000+0 0  9994
2 40984   0.0176 106.9362 0002199 101.8466 157.3543  1.00269240 25868
CHINASAT 2C (ZX 2C)     
1 41021U 15063A   22308.86433332 -.00000329  00000+0  00000+0 0  9993
2 41021   0.0646  67.9082 0002084 208.6281 182.1202  1.00268000 25773
GSAT-15                 
1 41028U 15065A   22308.86002924 -.00000264  00000+0  00000+0 0  9999
2 41028   0.0124 260.1892 0002639 290.6752 256.3057  1.00273847 25561
BADR-7 (ARABSAT-6B)     
1 41029U 15065B   22308.70231038  .00000139  00000+0  00000+0 0  9993
2 41029   0.0306 237.7058 0007266 357.8633  87.1980  1.00273058 25528
LAOSAT 1                
1 41034U 15067A   22307.71645431 -.00000351  00000+0  00000+0 0  9994
2 41034   0.0519  74.3341 0001991  89.7886 265.2951  1.00270698 25603
TELSTAR 12V             
1 41036U 15068A   22308.76587950 -.00000124  00000+0  00000+0 0  9992
2 41036   0.0191 270.4788 0002442 312.9484  81.2988  1.00270731 25381
CHINASAT 1C (ZX 1C)     
1 41103U 15073A   22308.87340913 -.00000122  00000+0  00000+0 0  9999
2 41103   3.7401  83.7842 0001679 126.8148 226.1546  1.00271633 25412
ELEKTRO-L 2             
1 41105U 15074A   22308.83773266 -.00000118  00000+0  00000+0 0  9994
2 41105   3.3368  86.4408 0002621 127.0843 117.6960  1.00270959 25271
